[{"OBJECT_NAME":"STARLINK-32030","OBJECT_ID":"2024-183E","EPOCH":"2026-03-09T12:18:39.546144","MEAN_MOTION":15.30184406,"ECCENTRICITY":0.00014301,"INCLINATION":53.1588,"RA_OF_ASC_NODE":143.4025,"ARG_OF_PERICENTER":88.522,"MEAN_ANOMALY":271.5945,"EPHEMERIS_TYPE":0,"CLASSIFICATION_TYPE":"U","NORAD_CAT_ID":61513,"ELEMENT_SET_NO":999,"REV_AT_EPOCH":7962,"BSTAR":0.00024694327,"MEAN_MOTION_DOT":6.958e-5,"MEAN_MOTION_DDOT":0},{"OBJECT_NAME":"SCS-01 H","OBJECT_ID":"2025-100H","EPOCH":"2026-03-09T23:19:05.376864","MEAN_MOTION":15.31767757,"ECCENTRICITY":0.00071581,"INCLINATION":97.3749,"RA_OF_ASC_NODE":145.8085,"ARG_OF_PERICENTER":277.8492,"MEAN_ANOMALY":82.1937,"EPHEMERIS_TYPE":0,"CLASSIFICATION_TYPE":"U","NORAD_CAT_ID":63989,"ELEMENT_SET_NO":999,"REV_AT_EPOCH":4566,"BSTAR":0.0011436254,"MEAN_MOTION_DOT":0.00035149,"MEAN_MOTION_DDOT":0}]
